{"type": "FeatureCollection", "features": [ {"type": "Feature", "properties": {"norad_id": 34303, "name": "COSMOS 2251 DEB", "group": "cosmos-2251-debris", "lat": 73.2885810844336, "lon": 40.979157520541385, "alt_km": 615.0608793522078, "timestamp": "2025-12-09T16:56:36.968190+00:00", "meta": {"OBJECT_NAME": "COSMOS 2251 DEB", "OBJECT_ID": "1993-036MZ", "EPOCH": "2025-12-09T03:23:10.029984", "MEAN_MOTION": 14.5437207, "ECCENTRICITY": 0.01349636, "INCLINATION": 74.0058, "RA_OF_ASC_NODE": 294.862, "ARG_OF_PERICENTER": 74.128, "MEAN_ANOMALY": 303.7193, "EPHEMERIS_TYPE": 0, "CLASSIFICATION_TYPE": "U", "NORAD_CAT_ID": 34303, "ELEMENT_SET_NO": 999, "REV_AT_EPOCH": 87910, "BSTAR": 0.0016959198, "MEAN_MOTION_DOT": 8.118e-05, "MEAN_MOTION_DDOT": 0}, "tle": {"line1": "1 34303U 93036MZ  25343.14108831  .00008118  00000+0  16959-2 0  9996", "line2": "2 34303  74.0058 294.8620 0134963  74.1280 303.7193 14.54372070879102"}}, "geometry": {"type": "Point", "coordinates": [40.979157520541385, 73.2885810844336]}}, {"type": "Feature", "properties": {"norad_id": 34304, "name": "COSMOS 2251 DEB", "group": "cosmos-2251-debris", "lat": 26.69547857970397, "lon": 136.47950504449557, "alt_km": 811.452924721757, "timestamp": "2025-12-09T16:56:36.968200+00:00", "meta": {"OBJECT_NAME": "COSMOS 2251 DEB", "OBJECT_ID": "1993-036NA", "EPOCH": "2025-12-09T10:16:43.196736", "MEAN_MOTION": 14.37809032, "ECCENTRICITY": 0.0128939, "INCLINATION": 74.0136, "RA_OF_ASC_NODE": 128.7032, "ARG_OF_PERICENTER": 267.1632, "MEAN_ANOMALY": 122.6683, "EPHEMERIS_TYPE": 0, "CLASSIFICATION_TYPE": "U", "NORAD_CAT_ID": 34304, "ELEMENT_SET_NO": 999, "REV_AT_EPOCH": 87249, "BSTAR": 0.0022181, "MEAN_MOTION_DOT": 7.337e-05, "MEAN_MOTION_DDOT": 0}, "tle": {"line1": "1 34304U 93036NA  25343.42827774  .00007337  00000+0  22181-2 0  9998", "line2": "2 34304  74.0136 128.7032 0128939 267.1632 122.6683 14.37809032872494"}}, "geometry": {"type": "Point", "coordinates": [136.47950504449557, 26.69547857970397]}}, {"type": "Feature", "properties": {"norad_id": 34307, "name": "COSMOS 2251 DEB", "group": "cosmos-2251-debris", "lat": 55.120278388910386, "lon": -17.801633820313754, "alt_km": 1044.3427224627776, "timestamp": "2025-12-09T16:56:36.968211+00:00", "meta": {"OBJECT_NAME": "COSMOS 2251 DEB", "OBJECT_ID": "1993-036ND", "EPOCH": "2025-12-09T08:22:42.189024", "MEAN_MOTION": 13.54314122, "ECCENTRICITY": 0.039217, "INCLINATION": 74.0531, "RA_OF_ASC_NODE": 318.5561, "ARG_OF_PERICENTER": 150.2438, "MEAN_ANOMALY": 333.519, "EPHEMERIS_TYPE": 0, "CLASSIFICATION_TYPE": "U", "NORAD_CAT_ID": 34307, "ELEMENT_SET_NO": 999, "REV_AT_EPOCH": 82816, "BSTAR": 0.00091809, "MEAN_MOTION_DOT": 1.002e-05, "MEAN_MOTION_DDOT": 0}, "tle": {"line1": "1 34307U 93036ND  25343.34909941  .00001002  00000+0  91809-3 0  9996", "line2": "2 34307  74.0531 318.5561 0392170 150.2438 333.5190 13.54314122828168"}}, "geometry": {"type": "Point", "coordinates": [-17.801633820313754, 55.120278388910386]}}, {"type": "Feature", "properties": {"norad_id": 34313, "name": "COSMOS 2251 DEB", "group": "cosmos-2251-debris", "lat": -35.435806509647996, "lon": 143.66824101885177, "alt_km": 522.2936249620434, "timestamp": "2025-12-09T16:56:36.968222+00:00", "meta": {"OBJECT_NAME": "COSMOS 2251 DEB", "OBJECT_ID": "1993-036NK", "EPOCH": "2025-12-09T08:05:04.425792", "MEAN_MOTION": 15.18202423, "ECCENTRICITY": 0.001145, "INCLINATION": 73.9729, "RA_OF_ASC_NODE": 312.639, "ARG_OF_PERICENTER": 85.6704, "MEAN_ANOMALY": 274.58, "EPHEMERIS_TYPE": 0, "CLASSIFICATION_TYPE": "U", "NORAD_CAT_ID": 34313, "ELEMENT_SET_NO": 999, "REV_AT_EPOCH": 89013, "BSTAR": 0.0052824, "MEAN_MOTION_DOT": 0.00109858, "MEAN_MOTION_DDOT": 0}, "tle": {"line1": "1 34313U 93036NK  25343.33685678  .00109858  00000+0  52824-2 0  9991", "line2": "2 34313  73.9729 312.6390 0011450  85.6704 274.5800 15.18202423890133"}}, "geometry": {"type": "Point", "coordinates": [143.66824101885177, -35.435806509647996]}}, {"type": "Feature", "properties": {"norad_id": 34314, "name": "COSMOS 2251 DEB", "group": "cosmos-2251-debris", "lat": -72.58656635489552, "lon": -160.0798722145638, "alt_km": 909.2582395429918, "timestamp": "2025-12-09T16:56:36.968232+00:00", "meta": {"OBJECT_NAME": "COSMOS 2251 DEB", "OBJECT_ID": "1993-036NL", "EPOCH": "2025-12-09T09:30:45.122112", "MEAN_MOTION": 14.17412467, "ECCENTRICITY": 0.0102722, "INCLINATION": 74.007, "RA_OF_ASC_NODE": 314.3498, "ARG_OF_PERICENTER": 60.8511, "MEAN_ANOMALY": 63.3245, "EPHEMERIS_TYPE": 0, "CLASSIFICATION_TYPE": "U", "NORAD_CAT_ID": 34314, "ELEMENT_SET_NO": 999, "REV_AT_EPOCH": 86610, "BSTAR": 0.0010296, "MEAN_MOTION_DOT": 2.172e-05, "MEAN_MOTION_DDOT": 0}, "tle": {"line1": "1 34314U 93036NL  25343.39635558  .00002172  00000+0  10296-2 0  9998", "line2": "2 34314  74.0070 314.3498 0102722  60.8511  63.3245 14.17412467866103"}}, "geometry": {"type": "Point", "coordinates": [-160.0798722145638, -72.58656635489552]}}, {"type": "Feature", "properties": {"norad_id": 34316, "name": "COSMOS 2251 DEB", "group": "cosmos-2251-debris", "lat": 3.5218663697425727, "lon": -16.026441847912444, "alt_km": 592.5617360057631, "timestamp": "2025-12-09T16:56:36.968242+00:00", "meta": {"OBJECT_NAME": "COSMOS 2251 DEB", "OBJECT_ID": "1993-036NN", "EPOCH": "2025-12-09T00:49:51.628512", "MEAN_MOTION": 14.91651734, "ECCENTRICITY": 0.00080663, "INCLINATION": 74.066, "RA_OF_ASC_NODE": 344.3098, "ARG_OF_PERICENTER": 70.6253, "MEAN_ANOMALY": 289.5801, "EPHEMERIS_TYPE": 0, "CLASSIFICATION_TYPE": "U", "NORAD_CAT_ID": 34316, "ELEMENT_SET_NO": 999, "REV_AT_EPOCH": 89154, "BSTAR": 0.0018713772, "MEAN_MOTION_DOT": 0.00018835, "MEAN_MOTION_DDOT": 0}, "tle": {"line1": "1 34316U 93036NN  25343.03462533  .00018835  00000+0  18714-2 0  9998", "line2": "2 34316  74.0660 344.3098 0008066  70.6253 289.5801 14.91651734891547"}}, "geometry": {"type": "Point", "coordinates": [-16.026441847912444, 3.5218663697425727]}}, {"type": "Feature", "properties": {"norad_id": 34317, "name": "COSMOS 2251 DEB", "group": "cosmos-2251-debris", "lat": 49.862248134632026, "lon": 60.74872832870377, "alt_km": 780.6368969222622, "timestamp": "2025-12-09T16:56:36.968253+00:00", "meta": {"OBJECT_NAME": "COSMOS 2251 DEB", "OBJECT_ID": "1993-036NP", "EPOCH": "2025-12-09T06:26:27.555072", "MEAN_MOTION": 13.65117468, "ECCENTRICITY": 0.0336407, "INCLINATION": 73.9248, "RA_OF_ASC_NODE": 41.4726, "ARG_OF_PERICENTER": 31.4075, "MEAN_ANOMALY": 30.1575, "EPHEMERIS_TYPE": 0, "CLASSIFICATION_TYPE": "U", "NORAD_CAT_ID": 34317, "ELEMENT_SET_NO": 999, "REV_AT_EPOCH": 83572, "BSTAR": 0.00059185, "MEAN_MOTION_DOT": 6.84e-06, "MEAN_MOTION_DDOT": 0}, "tle": {"line1": "1 34317U 93036NP  25343.26837448  .00000684  00000+0  59185-3 0  9996", "line2": "2 34317  73.9248  41.4726 0336407  31.4075  30.1575 13.65117468835728"}}, "geometry": {"type": "Point", "coordinates": [60.74872832870377, 49.862248134632026]}}, {"type": "Feature", "properties": {"norad_id": 34321, "name": "COSMOS 2251 DEB", "group": "cosmos-2251-debris", "lat": -63.082965352458956, "lon": 16.402253917506577, "alt_km": 724.279775307773, "timestamp": "2025-12-09T16:56:36.968263+00:00", "meta": {"OBJECT_NAME": "COSMOS 2251 DEB", "OBJECT_ID": "1993-036NT", "EPOCH": "2025-12-09T12:46:06.154752", "MEAN_MOTION": 14.50034515, "ECCENTRICITY": 0.0015748, "INCLINATION": 74.0281, "RA_OF_ASC_NODE": 162.3882, "ARG_OF_PERICENTER": 292.1124, "MEAN_ANOMALY": 128.2512, "EPHEMERIS_TYPE": 0, "CLASSIFICATION_TYPE": "U", "NORAD_CAT_ID": 34321, "ELEMENT_SET_NO": 999, "REV_AT_EPOCH": 88440, "BSTAR": 0.00092586, "MEAN_MOTION_DOT": 3.568e-05, "MEAN_MOTION_DDOT": 0}, "tle": {"line1": "1 34321U 93036NT  25343.53201568  .00003568  00000+0  92586-3 0  9995", "line2": "2 34321  74.0281 162.3882 0015748 292.1124 128.2512 14.50034515884406"}}, "geometry": {"type": "Point", "coordinates": [16.402253917506577, -63.082965352458956]}}, {"type": "Feature", "properties": {"norad_id": 34323, "name": "COSMOS 2251 DEB", "group": "cosmos-2251-debris", "lat": -1.784188500146156, "lon": 128.5534604127429, "alt_km": 692.273291633096, "timestamp": "2025-12-09T16:56:36.968273+00:00", "meta": {"OBJECT_NAME": "COSMOS 2251 DEB", "OBJECT_ID": "1993-036NV", "EPOCH": "2025-12-09T12:22:06.348000", "MEAN_MOTION": 14.74246937, "ECCENTRICITY": 0.0059789, "INCLINATION": 73.9532, "RA_OF_ASC_NODE": 129.441, "ARG_OF_PERICENTER": 174.263, "MEAN_ANOMALY": 252.7259, "EPHEMERIS_TYPE": 0, "CLASSIFICATION_TYPE": "U", "NORAD_CAT_ID": 34323, "ELEMENT_SET_NO": 999, "REV_AT_EPOCH": 88392, "BSTAR": 0.0039837, "MEAN_MOTION_DOT": 0.00027179, "MEAN_MOTION_DDOT": 0}, "tle": {"line1": "1 34323U 93036NV  25343.51535125  .00027179  00000+0  39837-2 0  9997", "line2": "2 34323  73.9532 129.4410 0059789 174.2630 252.7259 14.74246937883927"}}, "geometry": {"type": "Point", "coordinates": [128.5534604127429, -1.784188500146156]}}, {"type": "Feature", "properties": {"norad_id": 34325, "name": "COSMOS 2251 DEB", "group": "cosmos-2251-debris", "lat": -69.51323016329985, "lon": 68.9092498317117, "alt_km": 778.8471939074952, "timestamp": "2025-12-09T16:56:36.968283+00:00", "meta": {"OBJECT_NAME": "COSMOS 2251 DEB", "OBJECT_ID": "1993-036NX", "EPOCH": "2025-12-09T01:07:22.864224", "MEAN_MOTION": 14.04437788, "ECCENTRICITY": 0.01926141, "INCLINATION": 73.8715, "RA_OF_ASC_NODE": 199.3139, "ARG_OF_PERICENTER": 217.3878, "MEAN_ANOMALY": 306.7844, "EPHEMERIS_TYPE": 0, "CLASSIFICATION_TYPE": "U", "NORAD_CAT_ID": 34325, "ELEMENT_SET_NO": 999, "REV_AT_EPOCH": 85463, "BSTAR": 0.0020246976, "MEAN_MOTION_DOT": 3.783e-05, "MEAN_MOTION_DDOT": 0}, "tle": {"line1": "1 34325U 93036NX  25343.04679241  .00003783  00000+0  20247-2 0  9995", "line2": "2 34325  73.8715 199.3139 0192614 217.3878 306.7844 14.04437788854638"}}, "geometry": {"type": "Point", "coordinates": [68.9092498317117, -69.51323016329985]}}]}